TANSTAAFL-2             
1 62378U 24247B   26067.20753490  .00013897  00000+0  50872-3 0  9998
2 62378  44.9880 125.0934 0003072 298.8909  61.1666 15.28016845 67506
STARLINK-35031          
1 65404U 25192A   26068.73599288  .00031542  00000+0  10727-2 0  9994
2 65404  53.1600 242.6371 0000813  46.8896 313.2172 15.30195571 29247
