[{"OBJECT_NAME":"TANSTAAFL-2","OBJECT_ID":"2024-247B","EPOCH":"2026-03-08T04:58:51.015360","MEAN_MOTION":15.28016845,"ECCENTRICITY":0.00030723,"INCLINATION":44.988,"RA_OF_ASC_NODE":125.0934,"ARG_OF_PERICENTER":298.8909,"MEAN_ANOMALY":61.1666,"EPHEMERIS_TYPE":0,"CLASSIFICATION_TYPE":"U","NORAD_CAT_ID":62378,"ELEMENT_SET_NO":999,"REV_AT_EPOCH":6750,"BSTAR":0.00050871624,"MEAN_MOTION_DOT":0.00013897,"MEAN_MOTION_DDOT":0},{"OBJECT_NAME":"STARLINK-35031","OBJECT_ID":"2025-192A","EPOCH":"2026-03-09T17:39:49.785696","MEAN_MOTION":15.30195571,"ECCENTRICITY":8.13e-5,"INCLINATION":53.16,"RA_OF_ASC_NODE":242.6371,"ARG_OF_PERICENTER":46.8896,"MEAN_ANOMALY":313.2172,"EPHEMERIS_TYPE":0,"CLASSIFICATION_TYPE":"U","NORAD_CAT_ID":65404,"ELEMENT_SET_NO":999,"REV_AT_EPOCH":2924,"BSTAR":0.0010727259,"MEAN_MOTION_DOT":0.00031542,"MEAN_MOTION_DDOT":0}]
